HIMAWARI-8              
1 40267U 14060A   24064.60050571 -.00000272  00000+0  00000+0 0  9990
2 40267   0.0220 171.6170 0000846 192.4568 155.5996  1.00270077 34394
